COMMENT,ORIGINATOR,NORAD_CAT_ID,OBJECT_NAME,OBJECT_TYPE,CLASSIFICATION_TYPE,INTLDES,EPOCH,EPOCH_MICROSECONDS,MEAN_MOTION,ECCENTRICITY,INCLINATION,RA_OF_ASC_NODE,ARG_OF_PERICENTER,MEAN_ANOMALY,EPHEMERIS_TYPE,ELEMENT_SET_NO,REV_AT_EPOCH,BSTAR,MEAN_MOTION_DOT,MEAN_MOTION_DDOT,FILE,TLE_LINE0,TLE_LINE1,TLE_LINE2,OBJECT_ID,OBJECT_NUMBER,SEMIMAJOR_AXIS,PERIOD,APOGEE,PERIGEE,DECAYED
"GENERATED VIA SPACETRACK.ORG API","18 SPCS","48886","SPACEBEE-102","PAYLOAD","U","21059H","2023-11-04 08:11:25","651968","15.45170264","0.000273","97.6082","89.707","157.5031","202.6338","0","999","13090","0.0017282","0.00082629","0","4069969","0 SPACEBEE-102","1 48886U 21059H   23308.34126912  .00082629  00000-0  17282-2 0  9994","2 48886  97.6082  89.7070 0002730 157.5031 202.6338 15.45170264130905","2021-059H","48886","6809.015","93.194","432.739","429.021","0"
"GENERATED VIA SPACETRACK.ORG API","18 SPCS","48886","SPACEBEE-102","PAYLOAD","U","21059H","2023-11-04 08:11:25","651968","15.45170264","0.000273","97.6082","89.707","157.5031","202.6338","0","999","13090","0.0017282","0.00082629","0","4070271","0 SPACEBEE-102","1 48886U 21059H   23308.34126912  .00082629  00000-0  17282-2 0  9994","2 48886  97.6082  89.7070 0002730 157.5031 202.6338 15.45170264130905","2021-059H","48886","6809.015","93.194","432.739","429.021","0"
"GENERATED VIA SPACETRACK.ORG API","18 SPCS","48886","SPACEBEE-102","PAYLOAD","U","21059H","2023-11-04 22:10:41","421792","15.4527498","0.0002556","97.6079","90.3181","152.5166","207.6217","0","999","13099","0.0021736","0.00104613","0","4070865","0 SPACEBEE-102","1 48886U 21059H   23308.92409053  .00104613  00000-0  21736-2 0  9995","2 48886  97.6079  90.3181 0002556 152.5166 207.6217 15.45274980130992","2021-059H","48886","6808.707","93.187","432.313","428.832","0"
"GENERATED VIA SPACETRACK.ORG API","18 SPCS","48886","SPACEBEE-102","PAYLOAD","U","21059H","2023-11-05 04:23:40","454304","15.45336161","0.0002568","97.6078","90.5891","152.2248","207.9138","0","999","13103","0.0024449","0.00118132","0","4071424","0 SPACEBEE-102","1 48886U 21059H   23309.18310711  .00118132  00000-0  24449-2 0  9991","2 48886  97.6078  90.5891 0002568 152.2248 207.9138 15.45336161131033","2021-059H","48886","6808.528","93.184","432.141","428.644","0"
"GENERATED VIA SPACETRACK.ORG API","18 SPCS","48886","SPACEBEE-102","PAYLOAD","U","21059H","2023-11-05 09:03:24","168384","15.45382575","0.0002532","97.6079","90.7928","151.938","208.2005","0","999","13106","0.0023137","0.00111874","0","4072138","0 SPACEBEE-102","1 48886U 21059H   23309.37736306  .00111874  00000-0  23137-2 0  9993","2 48886  97.6079  90.7928 0002532 151.9380 208.2005 15.45382575131061","2021-059H","48886","6808.391","93.181","431.980","428.532","0"
"GENERATED VIA SPACETRACK.ORG API","18 SPCS","48886","SPACEBEE-102","PAYLOAD","U","21059H","2023-11-05 21:29:18","112128","15.45536349","0.000242","97.6076","91.3361","149.1479","210.9912","0","999","13114","0.0036368","0.00178345","0","4072675","0 SPACEBEE-102","1 48886U 21059H   23309.89534852  .00178345  00000-0  36368-2 0  9998","2 48886  97.6076  91.3361 0002420 149.1479 210.9912 15.45536349131146","2021-059H","48886","6807.940","93.172","431.452","428.157","0"
"GENERATED VIA SPACETRACK.ORG API","18 SPCS","48886","SPACEBEE-102","PAYLOAD","U","21059H","2023-11-05 21:29:18","112128","15.45536349","0.000242","97.6076","91.3361","149.1479","210.9912","0","999","13114","0.0036368","0.00178345","0","4073234","0 SPACEBEE-102","1 48886U 21059H   23309.89534852  .00178345  00000-0  36368-2 0  9998","2 48886  97.6076  91.3361 0002420 149.1479 210.9912 15.45536349131146","2021-059H","48886","6807.940","93.172","431.452","428.157","0"
"GENERATED VIA SPACETRACK.ORG API","18 SPCS","48886","SPACEBEE-102","PAYLOAD","U","21059H","2023-11-06 08:21:53","864640","15.45673467","0.0002462","97.6075","91.8107","147.6799","212.46","0","999","13121","0.0030363","0.00149014","0","4073987","0 SPACEBEE-102","1 48886U 21059H   23310.34854010  .00149014  00000-0  30363-2 0  9991","2 48886  97.6075  91.8107 0002462 147.6799 212.4600 15.45673467131214","2021-059H","48886","6807.537","93.163","431.078","427.726","0"
"GENERATED VIA SPACETRACK.ORG API","18 SPCS","48886","SPACEBEE-102","PAYLOAD","U","21059H","2023-11-06 08:21:53","864640","15.45673467","0.0002462","97.6075","91.8107","147.6799","212.46","0","999","13121","0.0030363","0.00149014","0","4074285","0 SPACEBEE-102","1 48886U 21059H   23310.34854010  .00149014  00000-0  30363-2 0  9991","2 48886  97.6075  91.8107 0002462 147.6799 212.4600 15.45673467131214","2021-059H","48886","6807.537","93.163","431.078","427.726","0"
"GENERATED VIA SPACETRACK.ORG API","18 SPCS","48886","SPACEBEE-102","PAYLOAD","U","21059H","2023-11-06 16:08:00","505248","15.45747875","0.0002408","97.6076","92.1505","144.6115","215.5294","0","999","13126","0.0029086","0.00142994","0","4074675","0 SPACEBEE-102","1 48886U 21059H   23310.67222807  .00142994  00000-0  29086-2 0  9990","2 48886  97.6076  92.1505 0002408 144.6115 215.5294 15.45747875131263","2021-059H","48886","6807.318","93.159","430.823","427.544","0"
"GENERATED VIA SPACETRACK.ORG API","18 SPCS","48886","SPACEBEE-102","PAYLOAD","U","21059H","2023-11-06 20:47:39","887232","15.45778291","0.0002353","97.6075","92.3541","143.3979","216.7431","0","999","13129","0.0021001","0.00102794","0","4074934","0 SPACEBEE-102","1 48886U 21059H   23310.86643388  .00102794  00000-0  21001-2 0  9995","2 48886  97.6075  92.3541 0002353 143.3979 216.7431 15.45778291131292","2021-059H","48886","6807.229","93.157","430.696","427.492","0"
"GENERATED VIA SPACETRACK.ORG API","18 SPCS","48886","SPACEBEE-102","PAYLOAD","U","21059H","2023-11-06 20:47:39","887232","15.45778291","0.0002353","97.6075","92.3541","143.3979","216.7431","0","999","13129","0.0021001","0.00102794","0","4075423","0 SPACEBEE-102","1 48886U 21059H   23310.86643388  .00102794  00000-0  21001-2 0  9995","2 48886  97.6075  92.3541 0002353 143.3979 216.7431 15.45778291131292","2021-059H","48886","6807.229","93.157","430.696","427.492","0"
"GENERATED VIA SPACETRACK.ORG API","18 SPCS","48886","SPACEBEE-102","PAYLOAD","U","21059H","2023-11-07 09:13:22","469376","15.45903011","0.0002339","97.6071","92.8966","141.1021","219.0397","0","999","13137","0.0022808","0.00112259","0","4076225","0 SPACEBEE-102","1 48886U 21059H   23311.38428784  .00112259  00000-0  22808-2 0  9997","2 48886  97.6071  92.8966 0002339 141.1021 219.0397 15.45903011131378","2021-059H","48886","6806.863","93.149","430.320","427.136","0"
"GENERATED VIA SPACETRACK.ORG API","18 SPCS","48886","SPACEBEE-102","PAYLOAD","U","21059H","2023-11-07 09:13:22","469376","15.45903011","0.0002339","97.6071","92.8966","141.1021","219.0397","0","999","13137","0.0022808","0.00112259","0","4076432","0 SPACEBEE-102","1 48886U 21059H   23311.38428784  .00112259  00000-0  22808-2 0  9997","2 48886  97.6071  92.8966 0002339 141.1021 219.0397 15.45903011131378","2021-059H","48886","6806.863","93.149","430.320","427.136","0"
"GENERATED VIA SPACETRACK.ORG API","18 SPCS","48886","SPACEBEE-102","PAYLOAD","U","21059H","2023-11-07 23:12:14","391072","15.46000789","0.0002207","97.6069","93.5079","137.9031","222.2387","0","999","13146","0.0018342","0.00090306","0","4077339","0 SPACEBEE-102","1 48886U 21059H   23311.96683323  .00090306  00000-0  18342-2 0  9999","2 48886  97.6069  93.5079 0002207 137.9031 222.2387 15.46000789131462","2021-059H","48886","6806.576","93.144","429.943","426.939","0"
"GENERATED VIA SPACETRACK.ORG API","18 SPCS","48886","SPACEBEE-102","PAYLOAD","U","21059H","2023-11-08 08:31:26","909184","15.46082444","0.0002067","97.6076","93.9146","136.6847","223.4564","0","999","13152","0.0018952","0.00093612","0","4078352","0 SPACEBEE-102","1 48886U 21059H   23312.35517256  .00093612  00000-0  18952-2 0  9994","2 48886  97.6076  93.9146 0002067 136.6847 223.4564 15.46082444131529","2021-059H","48886","6806.336","93.139","429.608","426.795","0"
"GENERATED VIA SPACETRACK.ORG API","18 SPCS","48886","SPACEBEE-102","PAYLOAD","U","21059H","2023-11-08 16:17:26","160000","15.46140519","0.0002058","97.6075","94.2549","134.6437","225.498","0","999","13157","0.0019836","0.00098236","0","4078677","0 SPACEBEE-102","1 48886U 21059H   23312.67877500  .00098236  00000-0  19836-2 0  9999","2 48886  97.6075  94.2549 0002058 134.6437 225.4980 15.46140519131579","2021-059H","48886","6806.166","93.135","429.432","426.630","0"
"GENERATED VIA SPACETRACK.ORG API","18 SPCS","48886","SPACEBEE-102","PAYLOAD","U","21059H","2023-11-08 22:30:12","820896","15.46186465","0.0002046","97.6072","94.5265","134.1389","226.0028","0","999","13161","0.001804","0.00089372","0","4078917","0 SPACEBEE-102","1 48886U 21059H   23312.93764839  .00089372  00000-0  18040-2 0  9995","2 48886  97.6072  94.5265 0002046 134.1389 226.0028 15.46186465131617","2021-059H","48886","6806.031","93.132","429.289","426.504","0"
"GENERATED VIA SPACETRACK.ORG API","18 SPCS","48886","SPACEBEE-102","PAYLOAD","U","21059H","2023-11-09 09:22:32","716416","15.46275491","0.0002071","97.6074","95.0014","132.476","227.6664","0","999","13168","0.0018317","0.00091042","0","4080359","0 SPACEBEE-102","1 48886U 21059H   23313.39065644  .00091042  00000-0  18317-2 0  9998","2 48886  97.6074  95.0014 0002071 132.4760 227.6664 15.46275491131687","2021-059H","48886","6805.770","93.127","429.044","426.225","0"
"GENERATED VIA SPACETRACK.ORG API","18 SPCS","48886","SPACEBEE-102","PAYLOAD","U","21059H","2023-11-09 15:35:17","479968","15.46314672","0.0002027","97.6074","95.2734","130.0041","230.1386","0","999","13172","0.0017713","0.00088122","0","4080394","0 SPACEBEE-102","1 48886U 21059H   23313.64950787  .00088122  00000-0  17713-2 0  9991","2 48886  97.6074  95.2734 0002027 130.0041 230.1386 15.46314672131725","2021-059H","48886","6805.655","93.125","428.899","426.140","0"
